[{"OBJECT_NAME":"STARLINK-35196","OBJECT_ID":"2025-232C","EPOCH":"2026-03-09T19:01:11.792640","MEAN_MOTION":15.30200138,"ECCENTRICITY":0.00015024,"INCLINATION":53.1586,"RA_OF_ASC_NODE":103.2665,"ARG_OF_PERICENTER":80.3479,"MEAN_ANOMALY":279.7692,"EPHEMERIS_TYPE":0,"CLASSIFICATION_TYPE":"U","NORAD_CAT_ID":66007,"ELEMENT_SET_NO":999,"REV_AT_EPOCH":2344,"BSTAR":0.00068743118,"MEAN_MOTION_DOT":0.00020056,"MEAN_MOTION_DDOT":0},{"OBJECT_NAME":"THORAD AGENA D DEB","OBJECT_ID":"1969-082CP","EPOCH":"2026-03-09T22:51:31.947840","MEAN_MOTION":15.31252047,"ECCENTRICITY":0.00108961,"INCLINATION":69.8927,"RA_OF_ASC_NODE":265.8646,"ARG_OF_PERICENTER":335.0972,"MEAN_ANOMALY":24.9676,"EPHEMERIS_TYPE":0,"CLASSIFICATION_TYPE":"U","NORAD_CAT_ID":4133,"ELEMENT_SET_NO":999,"REV_AT_EPOCH":97550,"BSTAR":0.0018489552,"MEAN_MOTION_DOT":0.00056347,"MEAN_MOTION_DDOT":0}]
